{"type": "FeatureCollection", "features": [ {"type": "Feature", "properties": {"norad_id": 34077, "name": "IRIDIUM 33 DEB", "group": "iridium-33-debris", "lat": -73.5173624966988, "lon": 38.810165068499906, "alt_km": 687.4140583638828, "timestamp": "2025-12-13T13:34:35.425705+00:00", "meta": {"OBJECT_NAME": "IRIDIUM 33 DEB", "OBJECT_ID": "1997-051CL", "EPOCH": "2025-12-12T17:09:47.187072", "MEAN_MOTION": 14.64840675, "ECCENTRICITY": 0.00102139, "INCLINATION": 86.3861, "RA_OF_ASC_NODE": 51.518, "ARG_OF_PERICENTER": 39.1914, "MEAN_ANOMALY": 84.5798, "EPHEMERIS_TYPE": 0, "CLASSIFICATION_TYPE": "U", "NORAD_CAT_ID": 34077, "ELEMENT_SET_NO": 999, "REV_AT_EPOCH": 88332, "BSTAR": 0.0018853385, "MEAN_MOTION_DOT": 0.00010098, "MEAN_MOTION_DDOT": 0}, "tle": {"line1": "1 34077U 97051CL  25346.71512948  .00010098  00000+0  18853-2 0  9994", "line2": "2 34077  86.3861  51.5180 0010213  39.1914  84.5798 14.64840675883329"}}, "geometry": {"type": "Point", "coordinates": [38.810165068499906, -73.5173624966988]}}, {"type": "Feature", "properties": {"norad_id": 34079, "name": "IRIDIUM 33 DEB", "group": "iridium-33-debris", "lat": -26.594886496979527, "lon": 6.469657803087515, "alt_km": 620.6522498681279, "timestamp": "2025-12-13T13:34:35.425715+00:00", "meta": {"OBJECT_NAME": "IRIDIUM 33 DEB", "OBJECT_ID": "1997-051CN", "EPOCH": "2025-12-13T01:00:32.224032", "MEAN_MOTION": 14.83541673, "ECCENTRICITY": 0.00055382, "INCLINATION": 86.3782, "RA_OF_ASC_NODE": 8.5249, "ARG_OF_PERICENTER": 7.2027, "MEAN_ANOMALY": 51.4492, "EPHEMERIS_TYPE": 0, "CLASSIFICATION_TYPE": "U", "NORAD_CAT_ID": 34079, "ELEMENT_SET_NO": 999, "REV_AT_EPOCH": 88982, "BSTAR": 0.0022677142, "MEAN_MOTION_DOT": 0.00018725, "MEAN_MOTION_DDOT": 0}, "tle": {"line1": "1 34079U 97051CN  25347.04203963  .00018725  00000+0  22677-2 0  9991", "line2": "2 34079  86.3782   8.5249 0005538   7.2027  51.4492 14.83541673889828"}}, "geometry": {"type": "Point", "coordinates": [6.469657803087515, -26.594886496979527]}}, {"type": "Feature", "properties": {"norad_id": 34088, "name": "IRIDIUM 33 DEB", "group": "iridium-33-debris", "lat": 85.91141908607972, "lon": 92.52451199513362, "alt_km": 585.6319353391682, "timestamp": "2025-12-13T13:34:35.425724+00:00", "meta": {"OBJECT_NAME": "IRIDIUM 33 DEB", "OBJECT_ID": "1997-051CX", "EPOCH": "2025-12-12T23:15:52.259040", "MEAN_MOTION": 14.91405495, "ECCENTRICITY": 0.00057338, "INCLINATION": 86.3851, "RA_OF_ASC_NODE": 30.6184, "ARG_OF_PERICENTER": 175.6058, "MEAN_ANOMALY": 312.8964, "EPHEMERIS_TYPE": 0, "CLASSIFICATION_TYPE": "U", "NORAD_CAT_ID": 34088, "ELEMENT_SET_NO": 999, "REV_AT_EPOCH": 88745, "BSTAR": 0.0034746874, "MEAN_MOTION_DOT": 0.00034855, "MEAN_MOTION_DDOT": 0}, "tle": {"line1": "1 34088U 97051CX  25346.96935485  .00034855  00000+0  34747-2 0  9995", "line2": "2 34088  86.3851  30.6184 0005733 175.6058 312.8964 14.91405495887455"}}, "geometry": {"type": "Point", "coordinates": [92.52451199513362, 85.91141908607972]}}, {"type": "Feature", "properties": {"norad_id": 34091, "name": "IRIDIUM 33 DEB", "group": "iridium-33-debris", "lat": -64.84082121561617, "lon": -105.71540491169571, "alt_km": 614.1165610301341, "timestamp": "2025-12-13T13:34:35.425733+00:00", "meta": {"OBJECT_NAME": "IRIDIUM 33 DEB", "OBJECT_ID": "1997-051DA", "EPOCH": "2025-12-12T15:24:10.062432", "MEAN_MOTION": 14.81820135, "ECCENTRICITY": 0.00333928, "INCLINATION": 86.3415, "RA_OF_ASC_NODE": 66.8784, "ARG_OF_PERICENTER": 293.6257, "MEAN_ANOMALY": 66.146, "EPHEMERIS_TYPE": 0, "CLASSIFICATION_TYPE": "U", "NORAD_CAT_ID": 34091, "ELEMENT_SET_NO": 999, "REV_AT_EPOCH": 87865, "BSTAR": 0.0068724224, "MEAN_MOTION_DOT": 0.0005519, "MEAN_MOTION_DDOT": 0}, "tle": {"line1": "1 34091U 97051DA  25346.64178313  .00055190  00000+0  68724-2 0  9990", "line2": "2 34091  86.3415  66.8784 0033392 293.6257  66.1460 14.81820135878659"}}, "geometry": {"type": "Point", "coordinates": [-105.71540491169571, -64.84082121561617]}}, {"type": "Feature", "properties": {"norad_id": 34097, "name": "IRIDIUM 33 DEB", "group": "iridium-33-debris", "lat": -6.3746445440656485, "lon": 0.6184300686595333, "alt_km": 720.8258808679584, "timestamp": "2025-12-13T13:34:35.425743+00:00", "meta": {"OBJECT_NAME": "IRIDIUM 33 DEB", "OBJECT_ID": "1997-051DG", "EPOCH": "2025-12-13T00:12:56.160576", "MEAN_MOTION": 14.34780103, "ECCENTRICITY": 0.00825771, "INCLINATION": 86.2011, "RA_OF_ASC_NODE": 1.2893, "ARG_OF_PERICENTER": 1.3032, "MEAN_ANOMALY": 358.8362, "EPHEMERIS_TYPE": 0, "CLASSIFICATION_TYPE": "U", "NORAD_CAT_ID": 34097, "ELEMENT_SET_NO": 999, "REV_AT_EPOCH": 87123, "BSTAR": 0.0020695009, "MEAN_MOTION_DOT": 6.116e-05, "MEAN_MOTION_DDOT": 0}, "tle": {"line1": "1 34097U 97051DG  25347.00898334  .00006116  00000+0  20695-2 0  9998", "line2": "2 34097  86.2011   1.2893 0082577   1.3032 358.8362 14.34780103871231"}}, "geometry": {"type": "Point", "coordinates": [0.6184300686595333, -6.3746445440656485]}}, {"type": "Feature", "properties": {"norad_id": 34145, "name": "IRIDIUM 33 DEB", "group": "iridium-33-debris", "lat": -74.3361836623758, "lon": -41.50681738986531, "alt_km": 796.8258490149274, "timestamp": "2025-12-13T13:34:35.425752+00:00", "meta": {"OBJECT_NAME": "IRIDIUM 33 DEB", "OBJECT_ID": "1997-051DY", "EPOCH": "2025-12-12T16:16:44.668992", "MEAN_MOTION": 14.4228829, "ECCENTRICITY": 0.00557169, "INCLINATION": 86.2122, "RA_OF_ASC_NODE": 332.5542, "ARG_OF_PERICENTER": 94.0004, "MEAN_ANOMALY": 266.7567, "EPHEMERIS_TYPE": 0, "CLASSIFICATION_TYPE": "U", "NORAD_CAT_ID": 34145, "ELEMENT_SET_NO": 999, "REV_AT_EPOCH": 87637, "BSTAR": 0.0016937605, "MEAN_MOTION_DOT": 5.713e-05, "MEAN_MOTION_DDOT": 0}, "tle": {"line1": "1 34145U 97051DY  25346.67829478  .00005713  00000+0  16938-2 0  9994", "line2": "2 34145  86.2122 332.5542 0055716  94.0004 266.7567 14.42288290876375"}}, "geometry": {"type": "Point", "coordinates": [-41.50681738986531, -74.3361836623758]}}, {"type": "Feature", "properties": {"norad_id": 34146, "name": "IRIDIUM 33 DEB", "group": "iridium-33-debris", "lat": -56.47111718200442, "lon": -16.19280788091349, "alt_km": 734.135799847596, "timestamp": "2025-12-13T13:34:35.425762+00:00", "meta": {"OBJECT_NAME": "IRIDIUM 33 DEB", "OBJECT_ID": "1997-051DZ", "EPOCH": "2025-12-13T00:49:46.396128", "MEAN_MOTION": 14.49052828, "ECCENTRICITY": 0.00255219, "INCLINATION": 86.284, "RA_OF_ASC_NODE": 349.6704, "ARG_OF_PERICENTER": 220.5759, "MEAN_ANOMALY": 193.6674, "EPHEMERIS_TYPE": 0, "CLASSIFICATION_TYPE": "U", "NORAD_CAT_ID": 34146, "ELEMENT_SET_NO": 999, "REV_AT_EPOCH": 88111, "BSTAR": 0.0014073171, "MEAN_MOTION_DOT": 5.383e-05, "MEAN_MOTION_DDOT": 0}, "tle": {"line1": "1 34146U 97051DZ  25347.03456477  .00005383  00000+0  14073-2 0  9992", "line2": "2 34146  86.2840 349.6704 0025521 220.5759 193.6674 14.49052828881114"}}, "geometry": {"type": "Point", "coordinates": [-16.19280788091349, -56.47111718200442]}}, {"type": "Feature", "properties": {"norad_id": 34159, "name": "IRIDIUM 33 DEB", "group": "iridium-33-debris", "lat": -13.206150372647947, "lon": 47.031138331124076, "alt_km": 759.2455917389307, "timestamp": "2025-12-13T13:34:35.425771+00:00", "meta": {"OBJECT_NAME": "IRIDIUM 33 DEB", "OBJECT_ID": "1997-051EN", "EPOCH": "2025-12-12T15:56:04.942176", "MEAN_MOTION": 14.38494722, "ECCENTRICITY": 0.00260005, "INCLINATION": 86.351, "RA_OF_ASC_NODE": 48.2735, "ARG_OF_PERICENTER": 288.0794, "MEAN_ANOMALY": 71.7572, "EPHEMERIS_TYPE": 0, "CLASSIFICATION_TYPE": "U", "NORAD_CAT_ID": 34159, "ELEMENT_SET_NO": 999, "REV_AT_EPOCH": 87958, "BSTAR": 0.00069408057, "MEAN_MOTION_DOT": 2.146e-05, "MEAN_MOTION_DDOT": 0}, "tle": {"line1": "1 34159U 97051EN  25346.66394609  .00002146  00000+0  69408-3 0  9999", "line2": "2 34159  86.3510  48.2735 0026000 288.0794  71.7572 14.38494722879582"}}, "geometry": {"type": "Point", "coordinates": [47.031138331124076, -13.206150372647947]}}, {"type": "Feature", "properties": {"norad_id": 34350, "name": "IRIDIUM 33 DEB", "group": "iridium-33-debris", "lat": 35.4331438211652, "lon": 5.068250818421663, "alt_km": 740.3400251554403, "timestamp": "2025-12-13T13:34:35.425781+00:00", "meta": {"OBJECT_NAME": "IRIDIUM 33 DEB", "OBJECT_ID": "1997-051ES", "EPOCH": "2025-12-12T19:57:01.913760", "MEAN_MOTION": 14.45387349, "ECCENTRICITY": 0.00228397, "INCLINATION": 86.3275, "RA_OF_ASC_NODE": 2.7675, "ARG_OF_PERICENTER": 134.8978, "MEAN_ANOMALY": 41.952, "EPHEMERIS_TYPE": 0, "CLASSIFICATION_TYPE": "U", "NORAD_CAT_ID": 34350, "ELEMENT_SET_NO": 999, "REV_AT_EPOCH": 88294, "BSTAR": 0.00048364551, "MEAN_MOTION_DOT": 1.725e-05, "MEAN_MOTION_DDOT": 0}, "tle": {"line1": "1 34350U 97051ES  25346.83127215  .00001725  00000+0  48365-3 0  9999", "line2": "2 34350  86.3275   2.7675 0022839 134.8978  41.9520 14.45387349882949"}}, "geometry": {"type": "Point", "coordinates": [5.068250818421663, 35.4331438211652]}}, {"type": "Feature", "properties": {"norad_id": 34366, "name": "IRIDIUM 33 DEB", "group": "iridium-33-debris", "lat": 29.176034941311528, "lon": 50.98534688324424, "alt_km": 715.8436772012265, "timestamp": "2025-12-13T13:34:35.425790+00:00", "meta": {"OBJECT_NAME": "IRIDIUM 33 DEB", "OBJECT_ID": "1997-051FJ", "EPOCH": "2025-12-12T15:01:14.442240", "MEAN_MOTION": 14.54058691, "ECCENTRICITY": 0.00225143, "INCLINATION": 86.3697, "RA_OF_ASC_NODE": 49.3626, "ARG_OF_PERICENTER": 139.9978, "MEAN_ANOMALY": 13.1081, "EPHEMERIS_TYPE": 0, "CLASSIFICATION_TYPE": "U", "NORAD_CAT_ID": 34366, "ELEMENT_SET_NO": 999, "REV_AT_EPOCH": 88180, "BSTAR": 0.0016055272, "MEAN_MOTION_DOT": 6.819e-05, "MEAN_MOTION_DDOT": 0}, "tle": {"line1": "1 34366U 97051FJ  25346.62586160  .00006819  00000+0  16055-2 0  9990", "line2": "2 34366  86.3697  49.3626 0022514 139.9978  13.1081 14.54058691881805"}}, "geometry": {"type": "Point", "coordinates": [50.98534688324424, 29.176034941311528]}}]}